[{"OBJECT_NAME":"YUNHAI-1 01","OBJECT_ID":"2016-068A","EPOCH":"2026-03-09T23:53:51.242208","MEAN_MOTION":14.3266794,"ECCENTRICITY":0.00048409,"INCLINATION":98.5892,"RA_OF_ASC_NODE":80.9046,"ARG_OF_PERICENTER":339.8191,"MEAN_ANOMALY":20.2801,"EPHEMERIS_TYPE":0,"CLASSIFICATION_TYPE":"U","NORAD_CAT_ID":41857,"ELEMENT_SET_NO":999,"REV_AT_EPOCH":48762,"BSTAR":0.00014397496,"MEAN_MOTION_DOT":3.47e-6,"MEAN_MOTION_DDOT":0},{"OBJECT_NAME":"COSMOS 1867 COOLANT","OBJECT_ID":"1987-060H","EPOCH":"2026-03-08T05:25:49.479168","MEAN_MOTION":14.34189364,"ECCENTRICITY":0.00159655,"INCLINATION":65.0086,"RA_OF_ASC_NODE":287.6418,"ARG_OF_PERICENTER":282.2929,"MEAN_ANOMALY":77.6369,"EPHEMERIS_TYPE":0,"CLASSIFICATION_TYPE":"U","NORAD_CAT_ID":39640,"ELEMENT_SET_NO":999,"REV_AT_EPOCH":62350,"BSTAR":0.00017406044,"MEAN_MOTION_DOT":3.89e-6,"MEAN_MOTION_DDOT":0}]
